STARLINK-5306           
1 55271U 23010C   26068.35849346  .00000787  00000+0  73714-4 0  9997
2 55271  70.0003  45.3995 0003022 270.3748  89.7065 14.98330801172737
SHIYAN-24C 02           
1 58651U 23206B   26068.89175597  .00002770  00000+0  23935-3 0  9991
2 58651  97.3985  41.8071 0003465  80.6641 279.4974 14.97980163120443
